GLOBALSTAR M001         
1 25162U 98008A   24345.88605375 -.00000032  00000+0  49755-3 0  9999
2 25162  52.0002 161.2867 0001418 162.5334 345.3525 12.38203910220387
GLOBALSTAR M003         
1 25165U 98008D   24345.92824660  .00000018  00000+0  11480-2 0  9993
2 25165  51.9993 329.9102 0007863 274.8115 123.1622 12.12058998210392
GLOBALSTAR M014         
1 25306U 98023A   24345.96060255 -.00000056  00000+0  40490-3 0  9990
2 25306  51.9846 279.3334 0001599  25.6799  49.3729 11.65476166169221
GLOBALSTAR M015         
1 25308U 98023C   24345.49702634 -.00000080  00000+0 -14873-3 0  9998
2 25308  51.9843  55.7475 0013098 102.0444 271.2020 11.48855725172391
GLOBALSTAR M008         
1 25309U 98023D   24345.68088439 -.00000085  00000+0  85537-4 0  9990
2 25309  51.9990  24.5783 0002895 137.9303  17.0999 12.36057611214535
